[{"OBJECT_NAME":"STARLINK-36733","OBJECT_ID":"2026-032Q","EPOCH":"2026-03-09T22:00:01.999584","MEAN_MOTION":15.75130561,"ECCENTRICITY":0.00016858,"INCLINATION":97.2842,"RA_OF_ASC_NODE":255.5043,"ARG_OF_PERICENTER":111.2965,"MEAN_ANOMALY":301.4343,"EPHEMERIS_TYPE":0,"CLASSIFICATION_TYPE":"U","NORAD_CAT_ID":67811,"ELEMENT_SET_NO":999,"REV_AT_EPOCH":481,"BSTAR":0.00097807441,"MEAN_MOTION_DOT":0.00147931,"MEAN_MOTION_DDOT":0},{"OBJECT_NAME":"UNKNOWN","OBJECT_ID":"","EPOCH":"2026-03-09T00:48:08.930880","MEAN_MOTION":15.7514874,"ECCENTRICITY":0.0019769,"INCLINATION":97.6379,"RA_OF_ASC_NODE":94.4029,"ARG_OF_PERICENTER":114.9652,"MEAN_ANOMALY":245.3669,"EPHEMERIS_TYPE":0,"CLASSIFICATION_TYPE":"U","NORAD_CAT_ID":89161,"ELEMENT_SET_NO":999,"REV_AT_EPOCH":56197,"BSTAR":0.0042433,"MEAN_MOTION_DOT":0.00691245,"MEAN_MOTION_DDOT":0}]
